CCSDS_OMM_VERS = 2.0
CREATION_DATE  = 
ORIGINATOR     = 

OBJECT_NAME    = COSMOS 2058
OBJECT_ID      = 1990-010A
CENTER_NAME    = EARTH
REF_FRAME      = TEME
TIME_SYSTEM    = UTC
MEAN_ELEMENT_THEORY = SGP/SGP4

EPOCH          = 2026-03-08T09:21:50.400288
MEAN_MOTION    = 15.11309469
ECCENTRICITY   = .00094775
INCLINATION    = 82.4670
RA_OF_ASC_NODE = 48.7083
ARG_OF_PERICENTER = 348.3196
MEAN_ANOMALY   = 11.7813

EPHEMERIS_TYPE = 0
CLASSIFICATION_TYPE = U
NORAD_CAT_ID   = 20465
ELEMENT_SET_NO = 999
REV_AT_EPOCH   = 94204
BSTAR          = .38917022E-3
MEAN_MOTION_DOT = .6588E-4
MEAN_MOTION_DDOT = 0

CCSDS_OMM_VERS = 2.0
CREATION_DATE  = 
ORIGINATOR     = 

OBJECT_NAME    = SL-14 R/B
OBJECT_ID      = 1990-010B
CENTER_NAME    = EARTH
REF_FRAME      = TEME
TIME_SYSTEM    = UTC
MEAN_ELEMENT_THEORY = SGP/SGP4

EPOCH          = 2026-03-08T14:35:09.807360
MEAN_MOTION    = 14.83567933
ECCENTRICITY   = .00186067
INCLINATION    = 82.4988
RA_OF_ASC_NODE = 268.4055
ARG_OF_PERICENTER = 306.1593
MEAN_ANOMALY   = 53.7900

EPHEMERIS_TYPE = 0
CLASSIFICATION_TYPE = U
NORAD_CAT_ID   = 20466
ELEMENT_SET_NO = 999
REV_AT_EPOCH   = 92832
BSTAR          = .63993883E-4
MEAN_MOTION_DOT = .552E-5
MEAN_MOTION_DDOT = 0

CCSDS_OMM_VERS = 2.0
CREATION_DATE  = 
ORIGINATOR     = 

OBJECT_NAME    = SL-14 R/B
OBJECT_ID      = 1990-018B
CENTER_NAME    = EARTH
REF_FRAME      = TEME
TIME_SYSTEM    = UTC
MEAN_ELEMENT_THEORY = SGP/SGP4

EPOCH          = 2026-03-08T11:44:55.798944
MEAN_MOTION    = 14.82143691
ECCENTRICITY   = .00176675
INCLINATION    = 82.5201
RA_OF_ASC_NODE = 224.2114
ARG_OF_PERICENTER = 95.6739
MEAN_ANOMALY   = 264.6491

EPHEMERIS_TYPE = 0
CLASSIFICATION_TYPE = U
NORAD_CAT_ID   = 20511
ELEMENT_SET_NO = 999
REV_AT_EPOCH   = 92240
BSTAR          = .90584236E-4
MEAN_MOTION_DOT = .746E-5
MEAN_MOTION_DDOT = 0

CCSDS_OMM_VERS = 2.0
CREATION_DATE  = 
ORIGINATOR     = 

OBJECT_NAME    = HST
OBJECT_ID      = 1990-037B
CENTER_NAME    = EARTH
REF_FRAME      = TEME
TIME_SYSTEM    = UTC
MEAN_ELEMENT_THEORY = SGP/SGP4

EPOCH          = 2026-03-08T01:12:43.887744
MEAN_MOTION    = 15.29454135
ECCENTRICITY   = .00017979
INCLINATION    = 28.4714
RA_OF_ASC_NODE = 51.1800
ARG_OF_PERICENTER = 110.1029
MEAN_ANOMALY   = 249.9760

EPHEMERIS_TYPE = 0
CLASSIFICATION_TYPE = U
NORAD_CAT_ID   = 20580
ELEMENT_SET_NO = 999
REV_AT_EPOCH   = 77306
BSTAR          = .36739108E-3
MEAN_MOTION_DOT = .11037E-3
MEAN_MOTION_DDOT = 0

CCSDS_OMM_VERS = 2.0
CREATION_DATE  = 
ORIGINATOR     = 

OBJECT_NAME    = SL-16 R/B
OBJECT_ID      = 1990-046B
CENTER_NAME    = EARTH
REF_FRAME      = TEME
TIME_SYSTEM    = UTC
MEAN_ELEMENT_THEORY = SGP/SGP4

EPOCH          = 2026-03-08T15:17:00.603456
MEAN_MOTION    = 14.15012777
ECCENTRICITY   = .00162304
INCLINATION    = 70.9988
RA_OF_ASC_NODE = 300.1262
ARG_OF_PERICENTER = 301.0801
MEAN_ANOMALY   = 58.8729

EPHEMERIS_TYPE = 0
CLASSIFICATION_TYPE = U
NORAD_CAT_ID   = 20625
ELEMENT_SET_NO = 999
REV_AT_EPOCH   = 84824
BSTAR          = -.10259723E-3
MEAN_MOTION_DOT = -.247E-5
MEAN_MOTION_DDOT = 0

CCSDS_OMM_VERS = 2.0
CREATION_DATE  = 
ORIGINATOR     = 

OBJECT_NAME    = COSMOS 2084
OBJECT_ID      = 1990-055A
CENTER_NAME    = EARTH
REF_FRAME      = TEME
TIME_SYSTEM    = UTC
MEAN_ELEMENT_THEORY = SGP/SGP4

EPOCH          = 2026-03-08T04:39:58.396896
MEAN_MOTION    = 15.05642001
ECCENTRICITY   = .00172459
INCLINATION    = 62.7922
RA_OF_ASC_NODE = 340.6779
ARG_OF_PERICENTER = 189.4903
MEAN_ANOMALY   = 170.5875

EPHEMERIS_TYPE = 0
CLASSIFICATION_TYPE = U
NORAD_CAT_ID   = 20663
ELEMENT_SET_NO = 999
REV_AT_EPOCH   = 93609
BSTAR          = .29484744E-3
MEAN_MOTION_DOT = .409E-4
MEAN_MOTION_DDOT = 0

CCSDS_OMM_VERS = 2.0
CREATION_DATE  = 
ORIGINATOR     = 

OBJECT_NAME    = SL-6 R/B(2)
OBJECT_ID      = 1990-055D
CENTER_NAME    = EARTH
REF_FRAME      = TEME
TIME_SYSTEM    = UTC
MEAN_ELEMENT_THEORY = SGP/SGP4

EPOCH          = 2026-03-08T05:47:47.768640
MEAN_MOTION    = 15.03587268
ECCENTRICITY   = .00244855
INCLINATION    = 62.7824
RA_OF_ASC_NODE = 258.7755
ARG_OF_PERICENTER = 346.6765
MEAN_ANOMALY   = 13.3685

EPHEMERIS_TYPE = 0
CLASSIFICATION_TYPE = U
NORAD_CAT_ID   = 20666
ELEMENT_SET_NO = 999
REV_AT_EPOCH   = 93797
BSTAR          = .2358802E-3
MEAN_MOTION_DOT = .3059E-4
MEAN_MOTION_DDOT = 0

CCSDS_OMM_VERS = 2.0
CREATION_DATE  = 
ORIGINATOR     = 

OBJECT_NAME    = SL-8 R/B
OBJECT_ID      = 1990-078B
CENTER_NAME    = EARTH
REF_FRAME      = TEME
TIME_SYSTEM    = UTC
MEAN_ELEMENT_THEORY = SGP/SGP4

EPOCH          = 2026-03-08T13:37:27.132960
MEAN_MOTION    = 14.89017204
ECCENTRICITY   = .0362517
INCLINATION    = 82.9002
RA_OF_ASC_NODE = 252.3200
ARG_OF_PERICENTER = 17.7819
MEAN_ANOMALY   = 343.5702

EPHEMERIS_TYPE = 0
CLASSIFICATION_TYPE = U
NORAD_CAT_ID   = 20775
ELEMENT_SET_NO = 999
REV_AT_EPOCH   = 80913
BSTAR          = .62261863E-3
MEAN_MOTION_DOT = .21146E-3
MEAN_MOTION_DDOT = 0

CCSDS_OMM_VERS = 2.0
CREATION_DATE  = 
ORIGINATOR     = 

OBJECT_NAME    = SL-8 R/B
OBJECT_ID      = 1991-006B
CENTER_NAME    = EARTH
REF_FRAME      = TEME
TIME_SYSTEM    = UTC
MEAN_ELEMENT_THEORY = SGP/SGP4

EPOCH          = 2026-03-08T12:35:24.836928
MEAN_MOTION    = 13.77494060
ECCENTRICITY   = .00231522
INCLINATION    = 82.9466
RA_OF_ASC_NODE = 170.9120
ARG_OF_PERICENTER = 41.4944
MEAN_ANOMALY   = 329.1171

EPHEMERIS_TYPE = 0
CLASSIFICATION_TYPE = U
NORAD_CAT_ID   = 21088
ELEMENT_SET_NO = 999
REV_AT_EPOCH   = 76391
BSTAR          = .7139946E-4
MEAN_MOTION_DOT = .87E-6
MEAN_MOTION_DDOT = 0

CCSDS_OMM_VERS = 2.0
CREATION_DATE  = 
ORIGINATOR     = 

OBJECT_NAME    = OKEAN-3
OBJECT_ID      = 1991-039A
CENTER_NAME    = EARTH
REF_FRAME      = TEME
TIME_SYSTEM    = UTC
MEAN_ELEMENT_THEORY = SGP/SGP4

EPOCH          = 2026-03-08T14:45:43.405344
MEAN_MOTION    = 15.04795373
ECCENTRICITY   = .00140512
INCLINATION    = 82.5187
RA_OF_ASC_NODE = 337.8845
ARG_OF_PERICENTER = 342.2244
MEAN_ANOMALY   = 17.8489

EPHEMERIS_TYPE = 0
CLASSIFICATION_TYPE = U
NORAD_CAT_ID   = 21397
ELEMENT_SET_NO = 999
REV_AT_EPOCH   = 86487
BSTAR          = .35627401E-3
MEAN_MOTION_DOT = .5064E-4
MEAN_MOTION_DDOT = 0

CCSDS_OMM_VERS = 2.0
CREATION_DATE  = 
ORIGINATOR     = 

OBJECT_NAME    = COSMOS 2151
OBJECT_ID      = 1991-042A
CENTER_NAME    = EARTH
REF_FRAME      = TEME
TIME_SYSTEM    = UTC
MEAN_ELEMENT_THEORY = SGP/SGP4

EPOCH          = 2026-03-08T13:11:06.506304
MEAN_MOTION    = 15.00100454
ECCENTRICITY   = .00140136
INCLINATION    = 82.4931
RA_OF_ASC_NODE = 84.7766
ARG_OF_PERICENTER = 67.2753
MEAN_ANOMALY   = 292.9951

EPHEMERIS_TYPE = 0
CLASSIFICATION_TYPE = U
NORAD_CAT_ID   = 21422
ELEMENT_SET_NO = 999
REV_AT_EPOCH   = 86302
BSTAR          = .1823947E-3
MEAN_MOTION_DOT = .2304E-4
MEAN_MOTION_DDOT = 0

CCSDS_OMM_VERS = 2.0
CREATION_DATE  = 
ORIGINATOR     = 

OBJECT_NAME    = SL-14 R/B
OBJECT_ID      = 1991-042B
CENTER_NAME    = EARTH
REF_FRAME      = TEME
TIME_SYSTEM    = UTC
MEAN_ELEMENT_THEORY = SGP/SGP4

EPOCH          = 2026-03-08T11:23:38.461344
MEAN_MOTION    = 14.81828561
ECCENTRICITY   = .00157363
INCLINATION    = 82.4921
RA_OF_ASC_NODE = 221.3215
ARG_OF_PERICENTER = 242.9717
MEAN_ANOMALY   = 116.9891

EPHEMERIS_TYPE = 0
CLASSIFICATION_TYPE = U
NORAD_CAT_ID   = 21423
ELEMENT_SET_NO = 999
REV_AT_EPOCH   = 85289
BSTAR          = .89942405E-4
MEAN_MOTION_DOT = .735E-5
MEAN_MOTION_DDOT = 0

