COSMOS 2058             
1 20465U 90010A   26067.39016667  .00006588  00000+0  38917-3 0  9993
2 20465  82.4670  48.7083 0009477 348.3196  11.7813 15.11309469942046
SL-14 R/B               
1 20466U 90010B   26067.60775240  .00000552  00000+0  63994-4 0  9996
2 20466  82.4988 268.4055 0018606 306.1593  53.7900 14.83567933928324
SL-14 R/B               
1 20511U 90018B   26067.48953471  .00000746  00000+0  90584-4 0  9995
2 20511  82.5201 224.2114 0017667  95.6739 264.6491 14.82143691922409
HST                     
1 20580U 90037B   26067.05050796  .00011037  00000+0  36739-3 0  9999
2 20580  28.4714  51.1800 0001797 110.1029 249.9760 15.29454135773065
SL-16 R/B               
1 20625U 90046B   26067.63681254 -.00000247  00000+0 -10260-3 0  9996
2 20625  70.9988 300.1262 0016230 301.0801  58.8729 14.15012777848247
COSMOS 2084             
1 20663U 90055A   26067.19442589  .00004090  00000+0  29485-3 0  9992
2 20663  62.7922 340.6779 0017245 189.4903 170.5875 15.05642001936090
SL-6 R/B(2)             
1 20666U 90055D   26067.24152510  .00003059  00000+0  23588-3 0  9995
2 20666  62.7824 258.7755 0024485 346.6765  13.3685 15.03587268937976
SL-8 R/B                
1 20775U 90078B   26067.56767515  .00021146  00000+0  62262-3 0  9992
2 20775  82.9002 252.3200 0362517  17.7819 343.5702 14.89017204809136
SL-8 R/B                
1 21088U 91006B   26067.52459302  .00000087  00000+0  71399-4 0  9993
2 21088  82.9466 170.9120 0023152  41.4944 329.1171 13.77494060763916
OKEAN-3                 
1 21397U 91039A   26067.61508571  .00005064  00000+0  35627-3 0  9998
2 21397  82.5187 337.8845 0014051 342.2244  17.8489 15.04795373864879
COSMOS 2151             
1 21422U 91042A   26067.54938086  .00002304  00000+0  18239-3 0  9995
2 21422  82.4931  84.7766 0014013  67.2753 292.9951 15.00100454863023
SL-14 R/B               
1 21423U 91042B   26067.47475071  .00000735  00000+0  89942-4 0  9994
2 21423  82.4921 221.3215 0015736 242.9717 116.9891 14.81828561852891
